[{"OBJECT_NAME":"KUIPER-00167","OBJECT_ID":"2025-217U","EPOCH":"2026-03-05T06:10:35.065056","MEAN_MOTION":14.79975308,"ECCENTRICITY":8.69e-5,"INCLINATION":51.8969,"RA_OF_ASC_NODE":65.1667,"ARG_OF_PERICENTER":46.7827,"MEAN_ANOMALY":313.3207,"EPHEMERIS_TYPE":0,"CLASSIFICATION_TYPE":"U","NORAD_CAT_ID":65780,"ELEMENT_SET_NO":999,"REV_AT_EPOCH":2418,"BSTAR":0.00034318,"MEAN_MOTION_DOT":2.399e-5,"MEAN_MOTION_DDOT":0},{"OBJECT_NAME":"KUIPER-00168","OBJECT_ID":"2025-217V","EPOCH":"2026-03-05T08:14:57.580800","MEAN_MOTION":14.79914334,"ECCENTRICITY":0.0001061,"INCLINATION":51.9004,"RA_OF_ASC_NODE":47.3174,"ARG_OF_PERICENTER":79.4696,"MEAN_ANOMALY":280.6386,"EPHEMERIS_TYPE":0,"CLASSIFICATION_TYPE":"U","NORAD_CAT_ID":65781,"ELEMENT_SET_NO":999,"REV_AT_EPOCH":2444,"BSTAR":0.00058916,"MEAN_MOTION_DOT":4.271e-5,"MEAN_MOTION_DDOT":0},{"OBJECT_NAME":"KUIPER-00169","OBJECT_ID":"2025-217W","EPOCH":"2026-03-05T08:08:09.677760","MEAN_MOTION":14.79807627,"ECCENTRICITY":7.49e-5,"INCLINATION":51.9014,"RA_OF_ASC_NODE":52.3462,"ARG_OF_PERICENTER":90.7064,"MEAN_ANOMALY":269.3984,"EPHEMERIS_TYPE":0,"CLASSIFICATION_TYPE":"U","NORAD_CAT_ID":65782,"ELEMENT_SET_NO":999,"REV_AT_EPOCH":2437,"BSTAR":0.00086511,"MEAN_MOTION_DOT":6.361e-5,"MEAN_MOTION_DDOT":0},{"OBJECT_NAME":"KUIPER-00170","OBJECT_ID":"2025-217X","EPOCH":"2026-03-05T16:05:05.679168","MEAN_MOTION":14.79920672,"ECCENTRICITY":5.41e-5,"INCLINATION":51.8999,"RA_OF_ASC_NODE":55.8551,"ARG_OF_PERICENTER":78.969,"MEAN_ANOMALY":281.1333,"EPHEMERIS_TYPE":0,"CLASSIFICATION_TYPE":"U","NORAD_CAT_ID":65783,"ELEMENT_SET_NO":999,"REV_AT_EPOCH":2435,"BSTAR":-3.6725e-5,"MEAN_MOTION_DOT":-5.01e-6,"MEAN_MOTION_DDOT":0},{"OBJECT_NAME":"KUIPER-00172","OBJECT_ID":"2025-217Z","EPOCH":"2026-03-05T20:00:00.999360","MEAN_MOTION":14.85272569,"ECCENTRICITY":0.0001208,"INCLINATION":51.8978,"RA_OF_ASC_NODE":35.9226,"ARG_OF_PERICENTER":300.5359,"MEAN_ANOMALY":107.0615,"EPHEMERIS_TYPE":0,"CLASSIFICATION_TYPE":"U","NORAD_CAT_ID":65785,"ELEMENT_SET_NO":999,"REV_AT_EPOCH":314,"BSTAR":-0.0025099,"MEAN_MOTION_DOT":-0.00021922,"MEAN_MOTION_DDOT":0},{"OBJECT_NAME":"KUIPER-00173","OBJECT_ID":"2025-217AA","EPOCH":"2026-03-05T13:45:51.346944","MEAN_MOTION":14.81950325,"ECCENTRICITY":0.0001435,"INCLINATION":51.9036,"RA_OF_ASC_NODE":50.6054,"ARG_OF_PERICENTER":1.3783,"MEAN_ANOMALY":358.7184,"EPHEMERIS_TYPE":0,"CLASSIFICATION_TYPE":"U","NORAD_CAT_ID":65786,"ELEMENT_SET_NO":999,"REV_AT_EPOCH":2441,"BSTAR":-0.012773,"MEAN_MOTION_DOT":-0.00100902,"MEAN_MOTION_DDOT":0},{"OBJECT_NAME":"KUIPER-00174","OBJECT_ID":"2025-217AB","EPOCH":"2026-03-05T15:32:33.859104","MEAN_MOTION":14.7993424,"ECCENTRICITY":0.0001245,"INCLINATION":51.9039,"RA_OF_ASC_NODE":45.9991,"ARG_OF_PERICENTER":64.6408,"MEAN_ANOMALY":295.4683,"EPHEMERIS_TYPE":0,"CLASSIFICATION_TYPE":"U","NORAD_CAT_ID":65787,"ELEMENT_SET_NO":999,"REV_AT_EPOCH":2448,"BSTAR":0.00063234,"MEAN_MOTION_DOT":4.603e-5,"MEAN_MOTION_DDOT":0},{"OBJECT_NAME":"KUIPER-00176","OBJECT_ID":"2025-217AC","EPOCH":"2026-03-05T10:17:16.318176","MEAN_MOTION":14.79932819,"ECCENTRICITY":6.76e-5,"INCLINATION":51.9017,"RA_OF_ASC_NODE":61.9388,"ARG_OF_PERICENTER":86.3146,"MEAN_ANOMALY":273.7893,"EPHEMERIS_TYPE":0,"CLASSIFICATION_TYPE":"U","NORAD_CAT_ID":65788,"ELEMENT_SET_NO":999,"REV_AT_EPOCH":2424,"BSTAR":-0.00040366,"MEAN_MOTION_DOT":-3.297e-5,"MEAN_MOTION_DDOT":0},{"OBJECT_NAME":"KUIPER-00101","OBJECT_ID":"2025-228A","EPOCH":"2026-03-05T07:20:27.900672","MEAN_MOTION":14.7992694,"ECCENTRICITY":5.69e-5,"INCLINATION":51.9032,"RA_OF_ASC_NODE":19.9631,"ARG_OF_PERICENTER":116.532,"MEAN_ANOMALY":243.57,"EPHEMERIS_TYPE":0,"CLASSIFICATION_TYPE":"U","NORAD_CAT_ID":65947,"ELEMENT_SET_NO":999,"REV_AT_EPOCH":2258,"BSTAR":0.00019647,"MEAN_MOTION_DOT":1.277e-5,"MEAN_MOTION_DDOT":0},{"OBJECT_NAME":"KUIPER-00113","OBJECT_ID":"2025-228B","EPOCH":"2026-03-05T06:39:30.095424","MEAN_MOTION":14.79988297,"ECCENTRICITY":8.6e-5,"INCLINATION":51.9001,"RA_OF_ASC_NODE":15.1045,"ARG_OF_PERICENTER":104.3033,"MEAN_ANOMALY":255.8025,"EPHEMERIS_TYPE":0,"CLASSIFICATION_TYPE":"U","NORAD_CAT_ID":65948,"ELEMENT_SET_NO":999,"REV_AT_EPOCH":2264,"BSTAR":0.00096325,"MEAN_MOTION_DOT":7.139e-5,"MEAN_MOTION_DDOT":0},{"OBJECT_NAME":"KUIPER-00117","OBJECT_ID":"2025-228C","EPOCH":"2026-03-05T20:22:17.973696","MEAN_MOTION":14.79940789,"ECCENTRICITY":8.44e-5,"INCLINATION":51.9008,"RA_OF_ASC_NODE":15.0818,"ARG_OF_PERICENTER":94.7655,"MEAN_ANOMALY":265.3404,"EPHEMERIS_TYPE":0,"CLASSIFICATION_TYPE":"U","NORAD_CAT_ID":65949,"ELEMENT_SET_NO":999,"REV_AT_EPOCH":2269,"BSTAR":0.00056511,"MEAN_MOTION_DOT":4.09e-5,"MEAN_MOTION_DDOT":0},{"OBJECT_NAME":"KUIPER-00121","OBJECT_ID":"2025-228D","EPOCH":"2026-03-05T13:12:22.656672","MEAN_MOTION":14.79938854,"ECCENTRICITY":0.0001142,"INCLINATION":51.902,"RA_OF_ASC_NODE":11.3966,"ARG_OF_PERICENTER":112.766,"MEAN_ANOMALY":247.3423,"EPHEMERIS_TYPE":0,"CLASSIFICATION_TYPE":"U","NORAD_CAT_ID":65950,"ELEMENT_SET_NO":999,"REV_AT_EPOCH":2272,"BSTAR":0.00019531,"MEAN_MOTION_DOT":1.268e-5,"MEAN_MOTION_DDOT":0},{"OBJECT_NAME":"KUIPER-00122","OBJECT_ID":"2025-228E","EPOCH":"2026-03-05T01:34:41.286432","MEAN_MOTION":14.79793574,"ECCENTRICITY":6.709e-5,"INCLINATION":51.9023,"RA_OF_ASC_NODE":23.506,"ARG_OF_PERICENTER":97.943,"MEAN_ANOMALY":262.1608,"EPHEMERIS_TYPE":0,"CLASSIFICATION_TYPE":"U","NORAD_CAT_ID":65951,"ELEMENT_SET_NO":999,"REV_AT_EPOCH":2251,"BSTAR":0.00039032178,"MEAN_MOTION_DOT":2.746e-5,"MEAN_MOTION_DDOT":0},{"OBJECT_NAME":"KUIPER-00123","OBJECT_ID":"2025-228F","EPOCH":"2026-03-05T20:14:42.821952","MEAN_MOTION":14.79975092,"ECCENTRICITY":0.0001049,"INCLINATION":51.8997,"RA_OF_ASC_NODE":20.1004,"ARG_OF_PERICENTER":97.2833,"MEAN_ANOMALY":262.8249,"EPHEMERIS_TYPE":0,"CLASSIFICATION_TYPE":"U","NORAD_CAT_ID":65952,"ELEMENT_SET_NO":999,"REV_AT_EPOCH":2262,"BSTAR":0.00086807,"MEAN_MOTION_DOT":6.409e-5,"MEAN_MOTION_DDOT":0},{"OBJECT_NAME":"KUIPER-00124","OBJECT_ID":"2025-228G","EPOCH":"2026-03-05T13:57:12.330144","MEAN_MOTION":14.79937815,"ECCENTRICITY":4.23e-5,"INCLINATION":51.901,"RA_OF_ASC_NODE":13.7479,"ARG_OF_PERICENTER":80.0047,"MEAN_ANOMALY":280.0963,"EPHEMERIS_TYPE":0,"CLASSIFICATION_TYPE":"U","NORAD_CAT_ID":65953,"ELEMENT_SET_NO":999,"REV_AT_EPOCH":2269,"BSTAR":0.00033328,"MEAN_MOTION_DOT":2.321e-5,"MEAN_MOTION_DDOT":0},{"OBJECT_NAME":"KUIPER-00125","OBJECT_ID":"2025-228H","EPOCH":"2026-03-05T12:43:15.802464","MEAN_MOTION":14.79950877,"ECCENTRICITY":9.3e-5,"INCLINATION":51.9032,"RA_OF_ASC_NODE":358.9968,"ARG_OF_PERICENTER":115.6002,"MEAN_ANOMALY":244.5056,"EPHEMERIS_TYPE":0,"CLASSIFICATION_TYPE":"U","NORAD_CAT_ID":65954,"ELEMENT_SET_NO":999,"REV_AT_EPOCH":2289,"BSTAR":0.00097105,"MEAN_MOTION_DOT":7.192e-5,"MEAN_MOTION_DDOT":0},{"OBJECT_NAME":"KUIPER-00126","OBJECT_ID":"2025-228J","EPOCH":"2026-03-05T14:38:04.534080","MEAN_MOTION":14.79922949,"ECCENTRICITY":0.0001715,"INCLINATION":51.9,"RA_OF_ASC_NODE":18.6431,"ARG_OF_PERICENTER":81.0911,"MEAN_ANOMALY":279.0245,"EPHEMERIS_TYPE":0,"CLASSIFICATION_TYPE":"U","NORAD_CAT_ID":65955,"ELEMENT_SET_NO":999,"REV_AT_EPOCH":2262,"BSTAR":7.4029e-5,"MEAN_MOTION_DOT":3.43e-6,"MEAN_MOTION_DDOT":0}]
